[{"OBJECT_NAME":"OBJECT B","OBJECT_ID":"2025-197B","EPOCH":"2026-03-09T22:54:10.410624","MEAN_MOTION":15.22275825,"ECCENTRICITY":0.00134905,"INCLINATION":97.4108,"RA_OF_ASC_NODE":256.8193,"ARG_OF_PERICENTER":3.3415,"MEAN_ANOMALY":356.7909,"EPHEMERIS_TYPE":0,"CLASSIFICATION_TYPE":"U","NORAD_CAT_ID":65489,"ELEMENT_SET_NO":999,"REV_AT_EPOCH":2819,"BSTAR":0.0002890926,"MEAN_MOTION_DOT":6.601e-5,"MEAN_MOTION_DDOT":0},{"OBJECT_NAME":"KIRARI (OICETS)","OBJECT_ID":"2005-031A","EPOCH":"2026-03-09T15:02:18.043872","MEAN_MOTION":15.22934858,"ECCENTRICITY":0.0019783,"INCLINATION":98.0768,"RA_OF_ASC_NODE":316.1697,"ARG_OF_PERICENTER":5.9068,"MEAN_ANOMALY":354.2396,"EPHEMERIS_TYPE":0,"CLASSIFICATION_TYPE":"U","NORAD_CAT_ID":28809,"ELEMENT_SET_NO":999,"REV_AT_EPOCH":12344,"BSTAR":0.00027776,"MEAN_MOTION_DOT":6.472e-5,"MEAN_MOTION_DDOT":0}]
